[
  {
    "COMMENT": "GENERATED VIA SPACETRACK.ORG API",
    "ORIGINATOR": "18 SPCS",
    "NORAD_CAT_ID": "36508",
    "OBJECT_NAME": "CRYOSAT 2",
    "OBJECT_TYPE": "PAYLOAD",
    "CLASSIFICATION_TYPE": "U",
    "INTLDES": "10013A",
    "EPOCH": "2023-05-22 14:46:05",
    "EPOCH_MICROSECONDS": "327616",
    "MEAN_MOTION": "14.51905769",
    "ECCENTRICITY": "0.0004753",
    "INCLINATION": "92.0222",
    "RA_OF_ASC_NODE": "6.2316",
    "ARG_OF_PERICENTER": "144.4547",
    "MEAN_ANOMALY": "215.6978",
    "EPHEMERIS_TYPE": "0",
    "ELEMENT_SET_NO": "999",
    "REV_AT_EPOCH": "69534",
    "BSTAR": "0.000063713",
    "MEAN_MOTION_DOT": "0.0000026",
    "MEAN_MOTION_DDOT": "0",
    "FILE": "3914693",
    "TLE_LINE0": "0 CRYOSAT 2",
    "TLE_LINE1": "1 36508U 10013A   23142.61533944  .00000260  00000-0  63713-4 0  9996",
    "TLE_LINE2": "2 36508  92.0222   6.2316 0004753 144.4547 215.6978 14.51905769695349",
    "OBJECT_ID": "2010-013A",
    "OBJECT_NUMBER": "36508",
    "SEMIMAJOR_AXIS": "7097.568",
    "PERIOD": "99.180",
    "APOGEE": "722.806",
    "PERIGEE": "716.059",
    "DECAYED": "0"
  },
  {
    "COMMENT": "GENERATED VIA SPACETRACK.ORG API",
    "ORIGINATOR": "18 SPCS",
    "NORAD_CAT_ID": "36508",
    "OBJECT_NAME": "CRYOSAT 2",
    "OBJECT_TYPE": "PAYLOAD",
    "CLASSIFICATION_TYPE": "U",
    "INTLDES": "10013A",
    "EPOCH": "2023-05-22 21:23:04",
    "EPOCH_MICROSECONDS": "45920",
    "MEAN_MOTION": "14.51905895",
    "ECCENTRICITY": "0.0004786",
    "INCLINATION": "92.0222",
    "RA_OF_ASC_NODE": "6.2981",
    "ARG_OF_PERICENTER": "143.8109",
    "MEAN_ANOMALY": "216.3423",
    "EPHEMERIS_TYPE": "0",
    "ELEMENT_SET_NO": "999",
    "REV_AT_EPOCH": "69538",
    "BSTAR": "0.000063229",
    "MEAN_MOTION_DOT": "0.00000258",
    "MEAN_MOTION_DDOT": "0",
    "FILE": "3914964",
    "TLE_LINE0": "0 CRYOSAT 2",
    "TLE_LINE1": "1 36508U 10013A   23142.89101905  .00000258  00000-0  63229-4 0  9993",
    "TLE_LINE2": "2 36508  92.0222   6.2981 0004786 143.8109 216.3423 14.51905895695387",
    "OBJECT_ID": "2010-013A",
    "OBJECT_NUMBER": "36508",
    "SEMIMAJOR_AXIS": "7097.567",
    "PERIOD": "99.180",
    "APOGEE": "722.829",
    "PERIGEE": "716.036",
    "DECAYED": "0"
  },
  {
    "COMMENT": "GENERATED VIA SPACETRACK.ORG API",
    "ORIGINATOR": "18 SPCS",
    "NORAD_CAT_ID": "36508",
    "OBJECT_NAME": "CRYOSAT 2",
    "OBJECT_TYPE": "PAYLOAD",
    "CLASSIFICATION_TYPE": "U",
    "INTLDES": "10013A",
    "EPOCH": "2023-05-23 20:32:29",
    "EPOCH_MICROSECONDS": "543136",
    "MEAN_MOTION": "14.51906299",
    "ECCENTRICITY": "0.0004901",
    "INCLINATION": "92.0221",
    "RA_OF_ASC_NODE": "6.531",
    "ARG_OF_PERICENTER": "141.5529",
    "MEAN_ANOMALY": "218.6028",
    "EPHEMERIS_TYPE": "0",
    "ELEMENT_SET_NO": "999",
    "REV_AT_EPOCH": "69556",
    "BSTAR": "0.000057332",
    "MEAN_MOTION_DOT": "0.00000234",
    "MEAN_MOTION_DDOT": "0",
    "FILE": "3915744",
    "TLE_LINE0": "0 CRYOSAT 2",
    "TLE_LINE1": "1 36508U 10013A   23143.85589749  .00000234  00000-0  57332-4 0  9998",
    "TLE_LINE2": "2 36508  92.0221   6.5310 0004901 141.5529 218.6028 14.51906299695560",
    "OBJECT_ID": "2010-013A",
    "OBJECT_NUMBER": "36508",
    "SEMIMAJOR_AXIS": "7097.566",
    "PERIOD": "99.180",
    "APOGEE": "722.910",
    "PERIGEE": "715.953",
    "DECAYED": "0"
  },
  {
    "COMMENT": "GENERATED VIA SPACETRACK.ORG API",
    "ORIGINATOR": "18 SPCS",
    "NORAD_CAT_ID": "36508",
    "OBJECT_NAME": "CRYOSAT 2",
    "OBJECT_TYPE": "PAYLOAD",
    "CLASSIFICATION_TYPE": "U",
    "INTLDES": "10013A",
    "EPOCH": "2023-05-23 22:11:44",
    "EPOCH_MICROSECONDS": "219904",
    "MEAN_MOTION": "14.51906333",
    "ECCENTRICITY": "0.0004907",
    "INCLINATION": "92.0221",
    "RA_OF_ASC_NODE": "6.5476",
    "ARG_OF_PERICENTER": "141.3844",
    "MEAN_ANOMALY": "218.7715",
    "EPHEMERIS_TYPE": "0",
    "ELEMENT_SET_NO": "999",
    "REV_AT_EPOCH": "69553",
    "BSTAR": "0.000057117",
    "MEAN_MOTION_DOT": "0.00000233",
    "MEAN_MOTION_DDOT": "0",
    "FILE": "3915766",
    "TLE_LINE0": "0 CRYOSAT 2",
    "TLE_LINE1": "1 36508U 10013A   23143.92481736  .00000233  00000-0  57117-4 0  9993",
    "TLE_LINE2": "2 36508  92.0221   6.5476 0004907 141.3844 218.7715 14.51906333695537",
    "OBJECT_ID": "2010-013A",
    "OBJECT_NUMBER": "36508",
    "SEMIMAJOR_AXIS": "7097.566",
    "PERIOD": "99.180",
    "APOGEE": "722.914",
    "PERIGEE": "715.948",
    "DECAYED": "0"
  },
  {
    "COMMENT": "GENERATED VIA SPACETRACK.ORG API",
    "ORIGINATOR": "18 SPCS",
    "NORAD_CAT_ID": "36508",
    "OBJECT_NAME": "CRYOSAT 2",
    "OBJECT_TYPE": "PAYLOAD",
    "CLASSIFICATION_TYPE": "U",
    "INTLDES": "10013A",
    "EPOCH": "2023-05-24 14:44:10",
    "EPOCH_MICROSECONDS": "985856",
    "MEAN_MOTION": "14.51906618",
    "ECCENTRICITY": "0.0004985",
    "INCLINATION": "92.022",
    "RA_OF_ASC_NODE": "6.7139",
    "ARG_OF_PERICENTER": "139.8076",
    "MEAN_ANOMALY": "220.3501",
    "EPHEMERIS_TYPE": "0",
    "ELEMENT_SET_NO": "999",
    "REV_AT_EPOCH": "69563",
    "BSTAR": "0.000051427",
    "MEAN_MOTION_DOT": "0.0000021",
    "MEAN_MOTION_DDOT": "0",
    "FILE": "3916549",
    "TLE_LINE0": "0 CRYOSAT 2",
    "TLE_LINE1": "1 36508U 10013A   23144.61401604  .00000210  00000-0  51427-4 0  9999",
    "TLE_LINE2": "2 36508  92.0220   6.7139 0004985 139.8076 220.3501 14.51906618695638",
    "OBJECT_ID": "2010-013A",
    "OBJECT_NUMBER": "36508",
    "SEMIMAJOR_AXIS": "7097.565",
    "PERIOD": "99.180",
    "APOGEE": "722.968",
    "PERIGEE": "715.892",
    "DECAYED": "0"
  },
  {
    "COMMENT": "GENERATED VIA SPACETRACK.ORG API",
    "ORIGINATOR": "18 SPCS",
    "NORAD_CAT_ID": "36508",
    "OBJECT_NAME": "CRYOSAT 2",
    "OBJECT_TYPE": "PAYLOAD",
    "CLASSIFICATION_TYPE": "U",
    "INTLDES": "10013A",
    "EPOCH": "2023-05-25 20:30:35",
    "EPOCH_MICROSECONDS": "136576",
    "MEAN_MOTION": "14.51907045",
    "ECCENTRICITY": "0.0005125",
    "INCLINATION": "92.0219",
    "RA_OF_ASC_NODE": "7.0133",
    "ARG_OF_PERICENTER": "136.9245",
    "MEAN_ANOMALY": "223.2364",
    "EPHEMERIS_TYPE": "0",
    "ELEMENT_SET_NO": "999",
    "REV_AT_EPOCH": "69585",
    "BSTAR": "0.00004227",
    "MEAN_MOTION_DOT": "0.00000173",
    "MEAN_MOTION_DDOT": "0",
    "FILE": "3917086",
    "TLE_LINE0": "0 CRYOSAT 2",
    "TLE_LINE1": "1 36508U 10013A   23145.85457334  .00000173  00000-0  42270-4 0  9991",
    "TLE_LINE2": "2 36508  92.0219   7.0133 0005125 136.9245 223.2364 14.51907045695855",
    "OBJECT_ID": "2010-013A",
    "OBJECT_NUMBER": "36508",
    "SEMIMAJOR_AXIS": "7097.564",
    "PERIOD": "99.180",
    "APOGEE": "723.066",
    "PERIGEE": "715.791",
    "DECAYED": "0"
  },
  {
    "COMMENT": "GENERATED VIA SPACETRACK.ORG API",
    "ORIGINATOR": "18 SPCS",
    "NORAD_CAT_ID": "36508",
    "OBJECT_NAME": "CRYOSAT 2",
    "OBJECT_TYPE": "PAYLOAD",
    "CLASSIFICATION_TYPE": "U",
    "INTLDES": "10013A",
    "EPOCH": "2023-05-25 22:09:49",
    "EPOCH_MICROSECONDS": "810752",
    "MEAN_MOTION": "14.51907076",
    "ECCENTRICITY": "0.0005132",
    "INCLINATION": "92.0219",
    "RA_OF_ASC_NODE": "7.0299",
    "ARG_OF_PERICENTER": "136.7581",
    "MEAN_ANOMALY": "223.403",
    "EPHEMERIS_TYPE": "0",
    "ELEMENT_SET_NO": "999",
    "REV_AT_EPOCH": "69582",
    "BSTAR": "0.000042513",
    "MEAN_MOTION_DOT": "0.00000174",
    "MEAN_MOTION_DDOT": "0",
    "FILE": "3917122",
    "TLE_LINE0": "0 CRYOSAT 2",
    "TLE_LINE1": "1 36508U 10013A   23145.92349318  .00000174  00000-0  42513-4 0  9992",
    "TLE_LINE2": "2 36508  92.0219   7.0299 0005132 136.7581 223.4030 14.51907076695820",
    "OBJECT_ID": "2010-013A",
    "OBJECT_NUMBER": "36508",
    "SEMIMAJOR_AXIS": "7097.564",
    "PERIOD": "99.180",
    "APOGEE": "723.071",
    "PERIGEE": "715.786",
    "DECAYED": "0"
  },
  {
    "COMMENT": "GENERATED VIA SPACETRACK.ORG API",
    "ORIGINATOR": "18 SPCS",
    "NORAD_CAT_ID": "36508",
    "OBJECT_NAME": "CRYOSAT 2",
    "OBJECT_TYPE": "PAYLOAD",
    "CLASSIFICATION_TYPE": "U",
    "INTLDES": "10013A",
    "EPOCH": "2023-05-26 13:03:01",
    "EPOCH_MICROSECONDS": "874880",
    "MEAN_MOTION": "14.51907272",
    "ECCENTRICITY": "0.0005198",
    "INCLINATION": "92.0218",
    "RA_OF_ASC_NODE": "7.1796",
    "ARG_OF_PERICENTER": "135.3667",
    "MEAN_ANOMALY": "224.7959",
    "EPHEMERIS_TYPE": "0",
    "ELEMENT_SET_NO": "999",
    "REV_AT_EPOCH": "69591",
    "BSTAR": "0.000037693",
    "MEAN_MOTION_DOT": "0.00000155",
    "MEAN_MOTION_DDOT": "0",
    "FILE": "3917630",
    "TLE_LINE0": "0 CRYOSAT 2",
    "TLE_LINE1": "1 36508U 10013A   23146.54377170  .00000155  00000-0  37693-4 0  9990",
    "TLE_LINE2": "2 36508  92.0218   7.1796 0005198 135.3667 224.7959 14.51907272695916",
    "OBJECT_ID": "2010-013A",
    "OBJECT_NUMBER": "36508",
    "SEMIMAJOR_AXIS": "7097.563",
    "PERIOD": "99.180",
    "APOGEE": "723.117",
    "PERIGEE": "715.739",
    "DECAYED": "0"
  },
  {
    "COMMENT": "GENERATED VIA SPACETRACK.ORG API",
    "ORIGINATOR": "18 SPCS",
    "NORAD_CAT_ID": "36508",
    "OBJECT_NAME": "CRYOSAT 2",
    "OBJECT_TYPE": "PAYLOAD",
    "CLASSIFICATION_TYPE": "U",
    "INTLDES": "10013A",
    "EPOCH": "2023-05-26 21:19:15",
    "EPOCH_MICROSECONDS": "239712",
    "MEAN_MOTION": "14.51907347",
    "ECCENTRICITY": "0.0005231",
    "INCLINATION": "92.0218",
    "RA_OF_ASC_NODE": "7.2627",
    "ARG_OF_PERICENTER": "134.5721",
    "MEAN_ANOMALY": "225.5914",
    "EPHEMERIS_TYPE": "0",
    "ELEMENT_SET_NO": "999",
    "REV_AT_EPOCH": "69596",
    "BSTAR": "0.00003522",
    "MEAN_MOTION_DOT": "0.00000145",
    "MEAN_MOTION_DDOT": "0",
    "FILE": "3917850",
    "TLE_LINE0": "0 CRYOSAT 2",
    "TLE_LINE1": "1 36508U 10013A   23146.88837083  .00000145  00000-0  35220-4 0  9994",
    "TLE_LINE2": "2 36508  92.0218   7.2627 0005231 134.5721 225.5914 14.51907347695968",
    "OBJECT_ID": "2010-013A",
    "OBJECT_NUMBER": "36508",
    "SEMIMAJOR_AXIS": "7097.563",
    "PERIOD": "99.180",
    "APOGEE": "723.140",
    "PERIGEE": "715.715",
    "DECAYED": "0"
  }
]